IRIDIUM 106             
1 41917U 17003A   25277.88224817 -.00000045  00000+0 -23076-4 0  9998
2 41917  86.4042 195.1845 0002280  72.6582 287.4863 14.34217393456610
IRIDIUM 103             
1 41918U 17003B   25278.14863948  .00000488  00000+0  16716-3 0  9994
2 41918  86.4038 194.9739 0002692  86.6415 273.5089 14.34216191456679
IRIDIUM 109             
1 41919U 17003C   25278.15496198  .00000564  00000+0  19430-3 0  9996
2 41919  86.4038 195.0266 0002294  86.0321 274.1137 14.34225311456647
IRIDIUM 102             
1 41920U 17003D   25278.19302848  .00000546  00000+0  18791-3 0  9999
2 41920  86.4041 194.9398 0002188  84.3254 275.8191 14.34218705456732
IRIDIUM 105             
1 41921U 17003E   25278.16386602  .00000556  00000+0  19158-3 0  9996
2 41921  86.4029 163.4673 0002280  85.0213 275.1243 14.34226436458588
IRIDIUM 104             
1 41922U 17003F   25278.20571402  .00000561  00000+0  19322-3 0  9995
2 41922  86.4033 194.9737 0002344  94.6614 265.4849 14.34214063456727
IRIDIUM 114             
1 41923U 17003G   25278.14229682  .00000433  00000+0  14748-3 0  9994
2 41923  86.4036 194.9838 0002446  84.6845 275.4629 14.34215816456691
IRIDIUM 108             
1 41924U 17003H   25278.17058363  .00000379  00000+0  12810-3 0  9991
2 41924  86.4020 163.3588 0001980  80.4140 279.7279 14.34215648458559
